OBJECT_NAME,OBJECT_ID,EPOCH,MEAN_MOTION,ECCENTRICITY,INCLINATION,RA_OF_ASC_NODE,ARG_OF_PERICENTER,MEAN_ANOMALY,EPHEMERIS_TYPE,CLASSIFICATION_TYPE,NORAD_CAT_ID,ELEMENT_SET_NO,REV_AT_EPOCH,BSTAR,MEAN_MOTION_DOT,MEAN_MOTION_DDOT
SPACEMOBILE-004,2024-163E,2026-07-06T11:41:01.713696,15.20801145,.0007073,52.9667,220.1743,196.8401,163.2360,0,U,61049,999,10070,.51660541E-3,.11231E-3,0
CZ-8A R/B,2025-231K,2026-07-08T08:43:46.690176,14.30160836,.01165181,50.0053,309.2225,298.5607,60.3622,0,U,66004,999,3797,.52595459E-4,-.16E-6,0
SZ-21 MODULE,2025-246C,2026-07-08T08:42:49.076064,15.78292762,.0006621,41.4707,175.2569,172.7347,187.3595,0,U,66515,999,3708,.21506039E-3,.38003E-3,0
SPACEMOBILE-006,2025-309A,2026-07-08T04:03:30.389472,15.18644437,.00106305,52.9947,235.5229,192.2291,167.8446,0,U,67232,999,2978,.24444343E-4,.19E-5,0
SPACEMOBILE-008,2026-139A,2026-07-08T09:56:22.106400,15.12795607,.00047044,52.9938,166.1941,40.1803,319.9535,0,U,69589,999,319,.48130817E-4,.553E-5,0
SPACEMOBILE-009,2026-139B,2026-07-08T08:23:21.807744,15.12688799,.00049379,52.9928,166.4987,35.3944,324.7374,0,U,69590,999,318,.46944963E-4,.53E-5,0
SPACEMOBILE-010,2026-139C,2026-07-08T10:01:53.865984,15.12519992,.000482,52.9933,166.2159,26.6938,333.4300,0,U,69591,999,320,.44398179E-4,.482E-5,0
